STARLINK-4720
1 53800U 22111AD  26060.99520712  .00032429  00000+0  52779-3 0  9994
2 53800  53.2105 276.8595 0004599 128.8375 231.3047 15.52385768192964
STARLINK-4078
1 52689U 22053AK  26061.17632856  .00078341  00000+0  12781-2 0  9998
2 52689  53.2114 119.7463 0002958  24.3319 335.7831 15.51928229210844
STARLINK-31761
1 59615U 24080Q   26061.16668981  .00281600  00000+0  43476-2 0  9992
2 59615  42.9949  74.4223 0018117 110.8490 129.7536 15.52213178  5876
STARLINK-30237
1 57437U 23105H   26061.16668981  .00328458  00000+0  50629-2 0  9990
2 57437  42.9983 278.4513 0012920 283.4061 327.3346 15.52174513  5783
STARLINK-31725
1 59538U 24074E   26061.16668981  .00080795  00000+0  13190-2 0  9991
2 59538  42.9977   9.0988 0011738 190.9143 247.1927 15.51547207  5724
STARLINK-4578
1 53965U 22125B   26061.16668981  .01103851  00000+0  17903-1 0  9999
2 53965  53.2174 253.4864 0001943  23.4031 179.0617 15.49767852  5846
STARLINK-3982
1 52614U 22052S   26060.98087882  .00046678  00000+0  88523-3 0  9992
2 52614  53.2091 266.8231 0001001 282.9757  77.1140 15.47885684210357
STARLINK-32262
1 60938U 24155Q   26060.52923341  .00043474  00000+0  83628-3 0  9997
2 60938  53.1545 150.7636 0007807 323.4799  36.5676 15.47478075 85372
STARLINK-1274
1 45387U 20019AD  26060.44916296  .00042944  00000+0  87815-3 0  9998
2 45387  53.0280 142.2769 0005012 206.8460 153.2287 15.45721524329347
STARLINK-30189
1 57430U 23105A   26061.16668981  .00180951  00000+0  35406-2 0  9993
2 57430  42.9985 281.6770 0002089 280.6822  68.2495 15.46022676  5914
STARLINK-34110
1 63811U 25092H   26061.16668981  .00206996  00000+0  41747-2 0  9993
2 63811  42.9988 210.6873 0016361 330.6505  61.9521 15.44908765  5612
STARLINK-34230
1 64137U 25111Q   26061.19305159  .00126994  00000+0  26965-2 0  9999
2 64137  42.9941 114.4138 0012336  54.0302 306.1698 15.43782761 44389
STARLINK-34379
1 64302U 25123M   26060.76900861  .00031724  00000+0  72397-3 0  9996
2 64302  70.0019 186.3028 0002969 251.2379 108.8481 15.42747825 41131
STARLINK-34003
1 63882U 25094U   26060.86379183  .00072959  00000+0  16521-2 0  9994
2 63882  70.0015 226.4136 0003605 271.6712  88.4057 15.42739718 46724
STARLINK-1132
1 45044U 20006A   26061.01530360  .00072094  00000+0  16188-2 0  9995
2 45044  53.1570 290.3156 0004947 158.7649 201.3563 15.42731482335749
STARLINK-3325
1 50843U 22001AS  26061.16668981  .00551439  00000+0  11650-1 0  9995
2 50843  53.2182 207.8056 0000981  86.7215 120.9103 15.42525567  5810
STARLINK-31027
1 58720U 24002R   26061.16668981  .00152410  00000+0  34290-2 0  9992
2 58720  53.1518 262.2028 0007224 224.1160  45.7777 15.42258482  5867
STARLINK-1221
1 45227U 20012BB  26060.93821736  .00019258  00000+0  45937-3 0  9993
2 45227  53.0668 306.3381 0002932  34.2471 325.8722 15.41594257335510
STARLINK-2401
1 47818U 21018AH  26061.16668981  .00047161  00000+0  11034-2 0  9999
2 47818  53.0525 288.3172 0001479 103.1174  11.6976 15.41694066  5815
STARLINK-3137
1 49449U 21104AT  26060.93798043  .00019294  00000+0  47129-3 0  9995
2 49449  53.2167 242.0704 0001133  90.2791 269.8345 15.40877911237777
STARLINK-34695
1 64916U 25157N   26061.16668981  .00039620  00000+0  99024-3 0  9992
2 64916  53.1609  18.7617 0001440  85.2358  71.8287 15.39776129  5628
STARLINK-35137
1 65686U 25212L   26061.13056977  .00058309  00000+0  14564-2 0  9992
2 65686  53.1618  10.9781 0001236 100.3870 259.7274 15.39623763 26171
STARLINK-35060
1 65693U 25212T   26061.05172370  .00020114  00000+0  51154-3 0  9997
2 65693  53.1611  11.1940 0001078  52.4337 307.6765 15.39618090 26211
STARLINK-34691
1 65691U 25212R   26061.16296772  .00050193  00000+0  12597-2 0  9997
2 65691  53.1613  10.4654 0000925 138.6028 221.5047 15.39544442 26237
STARLINK-35138
1 65420U 25192S   26060.89405565  .00032551  00000+0  86635-3 0  9998
2 65420  53.1596 269.0650 0000876 111.6211 248.4887 15.37941309 28182
STARLINK-3952
1 52534U 22051B   26061.16668981  .01904840  00000+0  49340-1 0  9995
2 52534  53.2177 161.3073 0001571 114.2803   8.5244 15.35576493  5736
STARLINK-3349
1 50813U 22001L   26060.99015958  .00056394  00000+0  16330-2 0  9993
2 50813  53.2083 159.5172 0003182 295.1585  64.9088 15.35059524229871
STARLINK-3633
1 51793U 22017AB  26061.16668981  .00135279  00000+0  39914-2 0  9991
2 51793  53.2193  18.8920 0001267  36.7533 248.2206 15.34018462  5813
STARLINK-5851
1 55947U 23037AK  26061.16668981  .01001770  00000+0  26684-1 0  9997
2 55947  70.0004 301.0419 0004223 278.5648  66.7897 15.35500544  5754
STARLINK-30476
1 57930U 23147T   26060.72223334  .00068075  00000+0  19280-2 0  9998
2 57930  42.9998 317.4013 0017629 188.2045 171.8524 15.35248903135994
STARLINK-1500
1 45744U 20038Q   26060.73182317  .00033077  00000+0  99071-3 0  9991
2 45744  53.0362 230.0669 0002607 200.0904 159.9995 15.34238282315599
STARLINK-32955
1 63117U 25039P   26061.16668981  .00096048  00000+0  29070-2 0  9993
2 63117  43.0001  54.3789 0005092 154.8072 310.7822 15.33141849  5790
STARLINK-30924
1 58412U 23180L   26061.05538366  .00000071  00000+0  10953-4 0  9994
2 58412  43.0066 308.0034 0001919 267.1839  92.8795 15.32093412128196
STARLINK-36509
1 67408U 26005E   26061.16668981 -.02324192  00000+0 -83291-1 0  9996
2 67408  42.9993 280.3706 0001107 279.8222 206.6195 15.31820826  5932
STARLINK-31920
1 59907U 24100Y   26061.16668981  .00133607  00000+0  42272-2 0  9995
2 59907  42.9995 135.1067 0003333  55.3135 150.6097 15.31548141  5799
STARLINK-4446
1 53505U 22099AS  26061.16668981  .00180047  00000+0  55122-2 0  9996
2 53505  97.6042 183.9343 0001672  69.5620 118.2494 15.33066970  5782
STARLINK-1047
1 44752U 19074AR  26061.06159141  .00014085  00000+0  45512-3 0  9992
2 44752  53.0705 181.6369 0003014 178.6727 181.4282 15.32375736348175
STARLINK-2185
1 47767U 21017AX  26061.00002315  .00045765  00000+0  15103-2 0  9996
2 47767  53.1586 240.3189 0001260  88.6488 225.3110 15.30992872  5857
STARLINK-31271
1 58827U 24017B   26060.79120016  .01332130  00000+0  40358-1 0  9997
2 58827  53.1571 241.2411 0000935  21.7563 338.3477 15.30666902118845
STARLINK-32120
1 60265U 24131L   26061.11455823  .00018262  00000+0  62425-3 0  9994
2 60265  53.1587  87.9811 0001425  81.6050 278.5112 15.30351774 90603
STARLINK-30915
1 58380U 23178G   26060.96504692  .00011422  00000+0  39549-3 0  9992
2 58380  53.1567 307.2186 0000888  88.1848 271.9254 15.30338424129938
STARLINK-32343
1 61712U 24196F   26061.16800086 -.00022102  00000+0 -73382-3 0  9997
2 61712  53.1607 136.3751 0001717  64.2470 295.8708 15.30306805 76009
STARLINK-34652
1 64772U 25147T   26060.90238102  .00019931  00000+0  68525-3 0  9995
2 64772  53.1576 278.6249 0001546  74.1408 285.9763 15.30104962 37565
STARLINK-32182
1 60319U 24133U   26061.13499923  .00016173  00000+0  55872-3 0  9994
2 60319  53.1603 332.1591 0001531  89.1305 270.9871 15.30098193 90483
STARLINK-31250
1 58839U 24017P   26060.87342656  .00027225  00000+0  93143-3 0  9992
2 58839  53.1588 230.3850 0001492  99.5398 260.5771 15.30078393118956
STARLINK-2630
1 48381U 21038AE  26061.16026369  .00103148  00000+0  34766-2 0  9990
2 48381  53.1591  22.7605 0001395  78.1562 281.9595 15.29920574266073
STARLINK-2513
1 48317U 21036AT  26060.81223013  .00058795  00000+0  20039-2 0  9998
2 48317  53.1581 124.7620 0001277  81.9432 278.1713 15.29835940267015
STARLINK-2478
1 48135U 21027AV  26060.95435344  .00260594  00000+0  86028-2 0  9995
2 48135  53.1586 203.7949 0002833 117.0444 243.0846 15.29835058271296
STARLINK-2613
1 48353U 21038A   26061.20022870  .00112346  00000+0  38010-2 0  9993
2 48353  53.1573  32.9104 0000826  36.7178 323.3879 15.29747284265935
STARLINK-1954
1 47555U 21009H   26061.13524691  .00056552  00000+0  19355-2 0  9991
2 47555  53.0575  45.3601 0004508  64.2038 295.9426 15.29710132279806
STARLINK-1063
1 44768U 19074BH  26061.11044070 -.00524439  00000+0 -19347-1 0  9995
2 44768  53.1564 254.5990 0002365  63.6584 296.4659 15.29563865347158
STARLINK-2354
1 47894U 21021AL  26061.03238332  .00015300  00000+0  53909-3 0  9994
2 47894  53.1527 303.6726 0001499 102.4175 257.6993 15.29498154275011
STARLINK-2358
1 47898U 21021AQ  26060.90535718  .00012024  00000+0  42780-3 0  9996
2 47898  53.1546 304.2626 0001169  69.7770 290.3356 15.29396808275001
STARLINK-1577
1 46063U 20055AN  26060.75276117  .00015378  00000+0  54353-3 0  9997
2 46063  53.1552 150.6813 0001094  88.6689 271.4437 15.29391528307851
STARLINK-3690
1 51964U 22025J   26061.16668981 -.00070427  00000+0 -24491-2 0  9999
2 51964  53.1605  59.2145 0001216 101.0181 326.0826 15.29386571  5666
STARLINK-2639
1 48436U 21040J   26060.70324043  .00017418  00000+0  61401-3 0  9994
2 48436  53.1572 215.2390 0001260  80.8672 279.2471 15.29382366265451
STARLINK-2497
1 48455U 21040AD  26060.70801911  .00006429  00000+0  23478-3 0  9991
2 48455  53.1576 215.1931 0001374  87.1921 272.9237 15.29376941265451
STARLINK-2226
1 48010U 21024AK  26061.14840848  .00008186  00000+0  29552-3 0  9992
2 48010  53.1550   7.4479 0001129  99.2067 260.9061 15.29374697273415
STARLINK-2628
1 48359U 21038G   26061.17725510  .00006273  00000+0  22941-3 0  9994
2 48359  53.1584  33.0091 0001376  85.2011 274.9147 15.29373285265920
STARLINK-2610
1 48376U 21038Z   26061.17528902  .00008402  00000+0  30299-3 0  9990
2 48376  53.1558  22.6955 0001247  96.2507 263.8636 15.29373216266073
STARLINK-2637
1 48356U 21038D   26061.18669867  .00012330  00000+0  43872-3 0  9991
2 48356  53.1581  32.9497 0001169  95.9938 264.1195 15.29370670265938
STARLINK-2061
1 48312U 21036AN  26060.45794321  .00011589  00000+0  41313-3 0  9997
2 48312  53.1576 126.6045 0001257  86.2672 273.8472 15.29370445266969
STARLINK-1271
1 45217U 20012AR  26061.13769248  .00006103  00000+0  22356-3 0  9999
2 45217  53.1565  59.0353 0001186  88.1671 271.9465 15.29368935334003
STARLINK-2280
1 47861U 21021B   26060.93671198  .00005600  00000+0  20618-3 0  9990
2 47861  53.1571 293.9093 0001171  92.2646 267.8488 15.29368252275217
